[{"OBJECT_NAME":"STARLINK-32375","OBJECT_ID":"2024-164W","EPOCH":"2026-03-09T08:26:21.859296","MEAN_MOTION":15.3019475,"ECCENTRICITY":0.00010907,"INCLINATION":53.159,"RA_OF_ASC_NODE":92.837,"ARG_OF_PERICENTER":77.8355,"MEAN_ANOMALY":282.2768,"EPHEMERIS_TYPE":0,"CLASSIFICATION_TYPE":"U","NORAD_CAT_ID":61070,"ELEMENT_SET_NO":999,"REV_AT_EPOCH":8342,"BSTAR":-2.782012e-5,"MEAN_MOTION_DOT":-1.183e-5,"MEAN_MOTION_DDOT":0},{"OBJECT_NAME":"EDISON-1","OBJECT_ID":"2025-009B","EPOCH":"2026-03-09T19:16:13.822464","MEAN_MOTION":15.29042904,"ECCENTRICITY":0.00043285,"INCLINATION":97.4042,"RA_OF_ASC_NODE":151.6286,"ARG_OF_PERICENTER":306.4185,"MEAN_ANOMALY":53.6655,"EPHEMERIS_TYPE":0,"CLASSIFICATION_TYPE":"U","NORAD_CAT_ID":62610,"ELEMENT_SET_NO":999,"REV_AT_EPOCH":6375,"BSTAR":0.00052814963,"MEAN_MOTION_DOT":0.00014835,"MEAN_MOTION_DDOT":0}]
